{
  "type": "FeatureCollection",
  "features": [
    {
      "type": "Feature",
      "properties": {
        "norad_id": 34797,
        "name": "COSMOS 2251 DEB",
        "group": "cosmos-2251-debris",
        "lat": -10.139556460390834,
        "lon": 110.86347267454727,
        "alt_km": 780.4071833608623,
        "timestamp": "2025-12-05T07:38:19.240541+00:00",
        "meta_object_name": "COSMOS 2251 DEB",
        "meta_object_id": "1993-036ABA",
        "meta_epoch": "2025-12-02T16:26:28.609440",
        "meta_mean_motion": 14.42535201,
        "meta_eccentricity": 0.00725247,
        "meta_inclination": 73.9763,
        "meta_ra_of_asc_node": 118.7115,
        "meta_arg_of_pericenter": 233.7261,
        "meta_mean_anomaly": 125.7182,
        "meta_ephemeris_type": 0,
        "meta_classification_type": "U",
        "meta_norad_cat_id": 34797,
        "meta_element_set_no": 999,
        "meta_rev_at_epoch": 87270,
        "meta_bstar": 0.0028458232,
        "meta_mean_motion_dot": 9.728e-05,
        "meta_mean_motion_ddot": 0,
        "tle_line1": "1 34797U 93036ABA 25336.68505335  .00009728  00000+0  28458-2 0  9999",
        "tle_line2": "2 34797  73.9763 118.7115 0072524 233.7261 125.7182 14.42535201872702"
      },
      "geometry": {
        "type": "Point",
        "coordinates": [
          110.86347267454727,
          -10.139556460390834
        ]
      }
    },
    {
      "type": "Feature",
      "properties": {
        "norad_id": 34814,
        "name": "COSMOS 2251 DEB",
        "group": "cosmos-2251-debris",
        "lat": 49.4089188194763,
        "lon": 139.4989575082902,
        "alt_km": 772.4617215696007,
        "timestamp": "2025-12-05T07:38:19.240552+00:00",
        "meta_object_name": "COSMOS 2251 DEB",
        "meta_object_id": "1993-036ABD",
        "meta_epoch": "2025-12-02T11:13:46.501248",
        "meta_mean_motion": 14.36815971,
        "meta_eccentricity": 0.00568423,
        "meta_inclination": 73.8957,
        "meta_ra_of_asc_node": 344.4866,
        "meta_arg_of_pericenter": 235.7348,
        "meta_mean_anomaly": 274.6986,
        "meta_ephemeris_type": 0,
        "meta_classification_type": "U",
        "meta_norad_cat_id": 34814,
        "meta_element_set_no": 999,
        "meta_rev_at_epoch": 87185,
        "meta_bstar": 0.0010643945,
        "meta_mean_motion_dot": 3.176e-05,
        "meta_mean_motion_ddot": 0,
        "tle_line1": "1 34814U 93036ABD 25336.46789932  .00003176  00000+0  10644-2 0  9991",
        "tle_line2": "2 34814  73.8957 344.4866 0056842 235.7348 274.6986 14.36815971871859"
      },
      "geometry": {
        "type": "Point",
        "coordinates": [
          139.4989575082902,
          49.4089188194763
        ]
      }
    },
    {
      "type": "Feature",
      "properties": {
        "norad_id": 34815,
        "name": "COSMOS 2251 DEB",
        "group": "cosmos-2251-debris",
        "lat": -70.77507747473666,
        "lon": 131.48781320481166,
        "alt_km": 626.4005582316795,
        "timestamp": "2025-12-05T07:38:19.240562+00:00",
        "meta_object_name": "COSMOS 2251 DEB",
        "meta_object_id": "1993-036ABE",
        "meta_epoch": "2025-12-03T13:51:22.817952",
        "meta_mean_motion": 14.78088557,
        "meta_eccentricity": 0.00590507,
        "meta_inclination": 74.0463,
        "meta_ra_of_asc_node": 259.7872,
        "meta_arg_of_pericenter": 330.9325,
        "meta_mean_anomaly": 28.8566,
        "meta_ephemeris_type": 0,
        "meta_classification_type": "U",
        "meta_norad_cat_id": 34815,
        "meta_element_set_no": 999,
        "meta_rev_at_epoch": 88492,
        "meta_bstar": 0.001634406,
        "meta_mean_motion_dot": 0.00012155,
        "meta_mean_motion_ddot": 0,
        "tle_line1": "1 34815U 93036ABE 25337.57734743  .00012155  00000+0  16344-2 0  9995",
        "tle_line2": "2 34815  74.0463 259.7872 0059050 330.9325  28.8566 14.78088557884920"
      },
      "geometry": {
        "type": "Point",
        "coordinates": [
          131.48781320481166,
          -70.77507747473666
        ]
      }
    },
    {
      "type": "Feature",
      "properties": {
        "norad_id": 34816,
        "name": "COSMOS 2251 DEB",
        "group": "cosmos-2251-debris",
        "lat": 10.384061470946516,
        "lon": -27.805148895721587,
        "alt_km": 865.5843069629273,
        "timestamp": "2025-12-05T07:38:19.240573+00:00",
        "meta_object_name": "COSMOS 2251 DEB",
        "meta_object_id": "1993-036ABF",
        "meta_epoch": "2025-12-04T06:55:01.795872",
        "meta_mean_motion": 13.5828868,
        "meta_eccentricity": 0.037371,
        "meta_inclination": 73.8862,
        "meta_ra_of_asc_node": 156.9114,
        "meta_arg_of_pericenter": 222.8428,
        "meta_mean_anomaly": 314.5615,
        "meta_ephemeris_type": 0,
        "meta_classification_type": "U",
        "meta_norad_cat_id": 34816,
        "meta_element_set_no": 999,
        "meta_rev_at_epoch": 82668,
        "meta_bstar": 0.0017556,
        "meta_mean_motion_dot": 1.988e-05,
        "meta_mean_motion_ddot": 0,
        "tle_line1": "1 34816U 93036ABF 25338.28821523  .00001988  00000+0  17556-2 0  9996",
        "tle_line2": "2 34816  73.8862 156.9114 0373710 222.8428 314.5615 13.58288680826688"
      },
      "geometry": {
        "type": "Point",
        "coordinates": [
          -27.805148895721587,
          10.384061470946516
        ]
      }
    },
    {
      "type": "Feature",
      "properties": {
        "norad_id": 34818,
        "name": "COSMOS 2251 DEB",
        "group": "cosmos-2251-debris",
        "lat": -17.166488591598775,
        "lon": 135.66060111479908,
        "alt_km": 789.8118294199076,
        "timestamp": "2025-12-05T07:38:19.240584+00:00",
        "meta_object_name": "COSMOS 2251 DEB",
        "meta_object_id": "1993-036ABH",
        "meta_epoch": "2025-12-02T23:50:56.245056",
        "meta_mean_motion": 14.36946659,
        "meta_eccentricity": 0.0023728,
        "meta_inclination": 74.0353,
        "meta_ra_of_asc_node": 314.8598,
        "meta_arg_of_pericenter": 33.1199,
        "meta_mean_anomaly": 24.3839,
        "meta_ephemeris_type": 0,
        "meta_classification_type": "U",
        "meta_norad_cat_id": 34818,
        "meta_element_set_no": 999,
        "meta_rev_at_epoch": 87230,
        "meta_bstar": 0.00041955,
        "meta_mean_motion_dot": 1.22e-05,
        "meta_mean_motion_ddot": 0,
        "tle_line1": "1 34818U 93036ABH 25336.99370654  .00001220  00000+0  41955-3 0  9998",
        "tle_line2": "2 34818  74.0353 314.8598 0023728  33.1199  24.3839 14.36946659872306"
      },
      "geometry": {
        "type": "Point",
        "coordinates": [
          135.66060111479908,
          -17.166488591598775
        ]
      }
    },
    {
      "type": "Feature",
      "properties": {
        "norad_id": 34819,
        "name": "COSMOS 2251 DEB",
        "group": "cosmos-2251-debris",
        "lat": 58.93889938320246,
        "lon": -51.492293746890866,
        "alt_km": 682.620665889126,
        "timestamp": "2025-12-05T07:38:19.240594+00:00",
        "meta_object_name": "COSMOS 2251 DEB",
        "meta_object_id": "1993-036ABJ",
        "meta_epoch": "2025-12-04T05:40:34.334400",
        "meta_mean_motion": 14.6376102,
        "meta_eccentricity": 0.001601,
        "meta_inclination": 74.0165,
        "meta_ra_of_asc_node": 159.0021,
        "meta_arg_of_pericenter": 252.5374,
        "meta_mean_anomaly": 286.3826,
        "meta_ephemeris_type": 0,
        "meta_classification_type": "U",
        "meta_norad_cat_id": 34819,
        "meta_element_set_no": 999,
        "meta_rev_at_epoch": 88104,
        "meta_bstar": 0.0032807,
        "meta_mean_motion_dot": 0.00017148,
        "meta_mean_motion_ddot": 0,
        "tle_line1": "1 34819U 93036ABJ 25338.23650850  .00017148  00000+0  32807-2 0  9998",
        "tle_line2": "2 34819  74.0165 159.0021 0016010 252.5374 286.3826 14.63761020881040"
      },
      "geometry": {
        "type": "Point",
        "coordinates": [
          -51.492293746890866,
          58.93889938320246
        ]
      }
    },
    {
      "type": "Feature",
      "properties": {
        "norad_id": 34823,
        "name": "COSMOS 2251 DEB",
        "group": "cosmos-2251-debris",
        "lat": 41.48916808838511,
        "lon": 130.9898183694248,
        "alt_km": 809.1280529674241,
        "timestamp": "2025-12-05T07:38:19.240604+00:00",
        "meta_object_name": "COSMOS 2251 DEB",
        "meta_object_id": "1993-036ABN",
        "meta_epoch": "2025-12-03T09:13:20.032032",
        "meta_mean_motion": 14.54804511,
        "meta_eccentricity": 0.01555596,
        "meta_inclination": 74.0395,
        "meta_ra_of_asc_node": 119.9881,
        "meta_arg_of_pericenter": 207.0513,
        "meta_mean_anomaly": 152.2484,
        "meta_ephemeris_type": 0,
        "meta_classification_type": "U",
        "meta_norad_cat_id": 34823,
        "meta_element_set_no": 999,
        "meta_rev_at_epoch": 88245,
        "meta_bstar": 0.0013569091,
        "meta_mean_motion_dot": 6.819e-05,
        "meta_mean_motion_ddot": 0,
        "tle_line1": "1 34823U 93036ABN 25337.38425963  .00006819  00000+0  13569-2 0  9990",
        "tle_line2": "2 34823  74.0395 119.9881 0155559 207.0513 152.2484 14.54804511882451"
      },
      "geometry": {
        "type": "Point",
        "coordinates": [
          130.9898183694248,
          41.48916808838511
        ]
      }
    }
  ]
}